[{"OBJECT_NAME":"CANVAS","OBJECT_ID":"2026-074J","EPOCH":"2026-04-18T13:05:22.664544","MEAN_MOTION":15.24024365,"ECCENTRICITY":0.00190635,"INCLINATION":60.0251,"RA_OF_ASC_NODE":46.9627,"ARG_OF_PERICENTER":330.0508,"MEAN_ANOMALY":29.948,"EPHEMERIS_TYPE":0,"CLASSIFICATION_TYPE":"U","NORAD_CAT_ID":68635,"ELEMENT_SET_NO":999,"REV_AT_EPOCH":169,"BSTAR":0.00045365853,"MEAN_MOTION_DOT":0.0001087,"MEAN_MOTION_DDOT":0},{"OBJECT_NAME":"QIANFAN-109","OBJECT_ID":"2026-075A","EPOCH":"2026-04-17T20:44:05.696448","MEAN_MOTION":14.20239475,"ECCENTRICITY":0.00140251,"INCLINATION":88.9909,"RA_OF_ASC_NODE":327.528,"ARG_OF_PERICENTER":178.7633,"MEAN_ANOMALY":181.3594,"EPHEMERIS_TYPE":0,"CLASSIFICATION_TYPE":"U","NORAD_CAT_ID":68636,"ELEMENT_SET_NO":999,"REV_AT_EPOCH":146,"BSTAR":9.608711e-5,"MEAN_MOTION_DOT":2.2e-6,"MEAN_MOTION_DDOT":0},{"OBJECT_NAME":"QIANFAN-110","OBJECT_ID":"2026-075B","EPOCH":"2026-04-17T22:20:56.754816","MEAN_MOTION":14.21658238,"ECCENTRICITY":0.00145716,"INCLINATION":88.991,"RA_OF_ASC_NODE":327.5202,"ARG_OF_PERICENTER":179.2967,"MEAN_ANOMALY":180.8247,"EPHEMERIS_TYPE":0,"CLASSIFICATION_TYPE":"U","NORAD_CAT_ID":68637,"ELEMENT_SET_NO":999,"REV_AT_EPOCH":147,"BSTAR":0.00011167565,"MEAN_MOTION_DOT":2.6e-6,"MEAN_MOTION_DDOT":0},{"OBJECT_NAME":"QIANFAN-111","OBJECT_ID":"2026-075C","EPOCH":"2026-04-17T22:19:27.983136","MEAN_MOTION":14.20963292,"ECCENTRICITY":0.00145446,"INCLINATION":88.991,"RA_OF_ASC_NODE":327.5195,"ARG_OF_PERICENTER":179.7282,"MEAN_ANOMALY":180.3919,"EPHEMERIS_TYPE":0,"CLASSIFICATION_TYPE":"U","NORAD_CAT_ID":68638,"ELEMENT_SET_NO":999,"REV_AT_EPOCH":147,"BSTAR":2.5773521e-5,"MEAN_MOTION_DOT":7.0e-7,"MEAN_MOTION_DDOT":0},{"OBJECT_NAME":"QIANFAN-112","OBJECT_ID":"2026-075D","EPOCH":"2026-04-17T23:59:57.712992","MEAN_MOTION":14.16298258,"ECCENTRICITY":0.00142053,"INCLINATION":88.9917,"RA_OF_ASC_NODE":327.5103,"ARG_OF_PERICENTER":200.1819,"MEAN_ANOMALY":159.8809,"EPHEMERIS_TYPE":0,"CLASSIFICATION_TYPE":"U","NORAD_CAT_ID":68639,"ELEMENT_SET_NO":999,"REV_AT_EPOCH":148,"BSTAR":-1.0598628,"MEAN_MOTION_DOT":-0.01951797,"MEAN_MOTION_DDOT":0},{"OBJECT_NAME":"QIANFAN-113","OBJECT_ID":"2026-075E","EPOCH":"2026-04-17T22:15:15.610464","MEAN_MOTION":14.21984355,"ECCENTRICITY":0.001463,"INCLINATION":88.991,"RA_OF_ASC_NODE":327.5193,"ARG_OF_PERICENTER":179.9975,"MEAN_ANOMALY":180.1219,"EPHEMERIS_TYPE":0,"CLASSIFICATION_TYPE":"U","NORAD_CAT_ID":68640,"ELEMENT_SET_NO":999,"REV_AT_EPOCH":147,"BSTAR":0.00015546192,"MEAN_MOTION_DOT":3.58e-6,"MEAN_MOTION_DDOT":0},{"OBJECT_NAME":"QIANFAN-114","OBJECT_ID":"2026-075F","EPOCH":"2026-04-17T20:26:45.463776","MEAN_MOTION":14.22111007,"ECCENTRICITY":0.00148853,"INCLINATION":88.9912,"RA_OF_ASC_NODE":327.5259,"ARG_OF_PERICENTER":181.9917,"MEAN_ANOMALY":178.1218,"EPHEMERIS_TYPE":0,"CLASSIFICATION_TYPE":"U","NORAD_CAT_ID":68641,"ELEMENT_SET_NO":999,"REV_AT_EPOCH":146,"BSTAR":7.4001635e-5,"MEAN_MOTION_DOT":1.78e-6,"MEAN_MOTION_DDOT":0},{"OBJECT_NAME":"QIANFAN-115","OBJECT_ID":"2026-075G","EPOCH":"2026-04-17T22:08:34.629792","MEAN_MOTION":14.23787234,"ECCENTRICITY":0.00150804,"INCLINATION":88.991,"RA_OF_ASC_NODE":327.5185,"ARG_OF_PERICENTER":179.322,"MEAN_ANOMALY":180.7996,"EPHEMERIS_TYPE":0,"CLASSIFICATION_TYPE":"U","NORAD_CAT_ID":68642,"ELEMENT_SET_NO":999,"REV_AT_EPOCH":147,"BSTAR":2.4624826e-5,"MEAN_MOTION_DOT":7.1e-7,"MEAN_MOTION_DDOT":0},{"OBJECT_NAME":"QIANFAN-116","OBJECT_ID":"2026-075H","EPOCH":"2026-04-17T22:09:13.113216","MEAN_MOTION":14.23019746,"ECCENTRICITY":0.00146047,"INCLINATION":88.9908,"RA_OF_ASC_NODE":327.5184,"ARG_OF_PERICENTER":180.4248,"MEAN_ANOMALY":179.6934,"EPHEMERIS_TYPE":0,"CLASSIFICATION_TYPE":"U","NORAD_CAT_ID":68643,"ELEMENT_SET_NO":999,"REV_AT_EPOCH":147,"BSTAR":8.539788e-5,"MEAN_MOTION_DOT":2.07e-6,"MEAN_MOTION_DDOT":0},{"OBJECT_NAME":"QIANFAN-117","OBJECT_ID":"2026-075J","EPOCH":"2026-04-17T22:07:41.810880","MEAN_MOTION":14.1835751,"ECCENTRICITY":0.00162974,"INCLINATION":88.9906,"RA_OF_ASC_NODE":327.519,"ARG_OF_PERICENTER":201.4387,"MEAN_ANOMALY":158.6121,"EPHEMERIS_TYPE":0,"CLASSIFICATION_TYPE":"U","NORAD_CAT_ID":68644,"ELEMENT_SET_NO":999,"REV_AT_EPOCH":147,"BSTAR":-1.0454242,"MEAN_MOTION_DOT":-0.01997569,"MEAN_MOTION_DDOT":0},{"OBJECT_NAME":"QIANFAN-118","OBJECT_ID":"2026-075K","EPOCH":"2026-04-17T20:24:37.558080","MEAN_MOTION":14.20153623,"ECCENTRICITY":0.00156846,"INCLINATION":88.9902,"RA_OF_ASC_NODE":327.5269,"ARG_OF_PERICENTER":183.2919,"MEAN_ANOMALY":176.8171,"EPHEMERIS_TYPE":0,"CLASSIFICATION_TYPE":"U","NORAD_CAT_ID":68645,"ELEMENT_SET_NO":999,"REV_AT_EPOCH":146,"BSTAR":-1.055963,"MEAN_MOTION_DOT":-0.02079892,"MEAN_MOTION_DDOT":0},{"OBJECT_NAME":"QIANFAN-119","OBJECT_ID":"2026-075L","EPOCH":"2026-04-17T22:04:24.018816","MEAN_MOTION":14.19921713,"ECCENTRICITY":0.00152213,"INCLINATION":88.9901,"RA_OF_ASC_NODE":327.5175,"ARG_OF_PERICENTER":190.1275,"MEAN_ANOMALY":169.961,"EPHEMERIS_TYPE":0,"CLASSIFICATION_TYPE":"U","NORAD_CAT_ID":68646,"ELEMENT_SET_NO":999,"REV_AT_EPOCH":147,"BSTAR":-1.0272926,"MEAN_MOTION_DOT":-0.02019207,"MEAN_MOTION_DDOT":0},{"OBJECT_NAME":"QIANFAN-120","OBJECT_ID":"2026-075M","EPOCH":"2026-04-17T20:20:01.281120","MEAN_MOTION":14.21963187,"ECCENTRICITY":0.00154211,"INCLINATION":88.99,"RA_OF_ASC_NODE":327.5256,"ARG_OF_PERICENTER":172.7213,"MEAN_ANOMALY":187.4205,"EPHEMERIS_TYPE":0,"CLASSIFICATION_TYPE":"U","NORAD_CAT_ID":68647,"ELEMENT_SET_NO":999,"REV_AT_EPOCH":146,"BSTAR":-0.94426359,"MEAN_MOTION_DOT":-0.01935034,"MEAN_MOTION_DDOT":0},{"OBJECT_NAME":"QIANFAN-121","OBJECT_ID":"2026-075N","EPOCH":"2026-04-17T22:02:26.698848","MEAN_MOTION":14.26053937,"ECCENTRICITY":0.00141662,"INCLINATION":88.991,"RA_OF_ASC_NODE":327.518,"ARG_OF_PERICENTER":180.8352,"MEAN_ANOMALY":179.2821,"EPHEMERIS_TYPE":0,"CLASSIFICATION_TYPE":"U","NORAD_CAT_ID":68648,"ELEMENT_SET_NO":999,"REV_AT_EPOCH":147,"BSTAR":0.00011636682,"MEAN_MOTION_DOT":2.93e-6,"MEAN_MOTION_DDOT":0},{"OBJECT_NAME":"QIANFAN-122","OBJECT_ID":"2026-075P","EPOCH":"2026-04-17T22:02:10.761504","MEAN_MOTION":14.26087043,"ECCENTRICITY":0.00143725,"INCLINATION":88.9911,"RA_OF_ASC_NODE":327.518,"ARG_OF_PERICENTER":180.5131,"MEAN_ANOMALY":179.6051,"EPHEMERIS_TYPE":0,"CLASSIFICATION_TYPE":"U","NORAD_CAT_ID":68649,"ELEMENT_SET_NO":999,"REV_AT_EPOCH":147,"BSTAR":0.00012771021,"MEAN_MOTION_DOT":3.2e-6,"MEAN_MOTION_DDOT":0},{"OBJECT_NAME":"QIANFAN-123","OBJECT_ID":"2026-075Q","EPOCH":"2026-04-18T11:38:56.218560","MEAN_MOTION":14.2360879,"ECCENTRICITY":0.00148135,"INCLINATION":88.9907,"RA_OF_ASC_NODE":327.4536,"ARG_OF_PERICENTER":177.1245,"MEAN_ANOMALY":183.0035,"EPHEMERIS_TYPE":0,"CLASSIFICATION_TYPE":"U","NORAD_CAT_ID":68650,"ELEMENT_SET_NO":999,"REV_AT_EPOCH":152,"BSTAR":8.0616493e-5,"MEAN_MOTION_DOT":1.98e-6,"MEAN_MOTION_DDOT":0},{"OBJECT_NAME":"QIANFAN-124","OBJECT_ID":"2026-075R","EPOCH":"2026-04-18T14:52:30.789120","MEAN_MOTION":14.26079188,"ECCENTRICITY":0.00150107,"INCLINATION":88.9909,"RA_OF_ASC_NODE":327.4366,"ARG_OF_PERICENTER":178.2365,"MEAN_ANOMALY":181.8884,"EPHEMERIS_TYPE":0,"CLASSIFICATION_TYPE":"U","NORAD_CAT_ID":68651,"ELEMENT_SET_NO":999,"REV_AT_EPOCH":157,"BSTAR":8.7165232e-5,"MEAN_MOTION_DOT":2.23e-6,"MEAN_MOTION_DDOT":0}]
